NORAD_CAT_ID,OBJECT_NAME,OBJECT_TYPE,EPOCH,MEAN_MOTION,ECCENTRICITY,INCLINATION,RA_OF_ASC_NODE,ARG_OF_PERICENTER,MEAN_ANOMALY,BSTAR,MEAN_MOTION_DOT,MEAN_MOTION_DDOT,TLE_LINE0,TLE_LINE1,TLE_LINE2,SEMIMAJOR_AXIS,PERIOD,APOGEE,PERIGEE,DECAYED
53140.0,STARLINK-4170,PAYLOAD,2024-03-06 17:12:48,15.0886947,0.0001151,53.2176,224.5612,99.0598,261.0524,-0.00034199,-5.731e-05,0.0,0 STARLINK-4170,1 53140U 22083J   24066.71722513 -.00005731  00000-0 -34199-3 0  9991,2 53140  53.2176 224.5612 0001151  99.0598 261.0524 15.08869470 91197,6917.79,95.436,540.452,538.859,0.0
53140.0,STARLINK-4170,PAYLOAD,2024-03-07 13:52:50,15.088284,0.0001309,53.2175,220.6946,103.6123,256.5015,7.7297e-05,9.42e-06,0.0,0 STARLINK-4170,1 53140U 22083J   24067.57836011  .00000942  00000-0  77297-4 0  9999,2 53140  53.2175 220.6946 0001309 103.6123 256.5015 15.08828400 90690,6917.916,95.438,540.686,538.875,0.0
53140.0,STARLINK-4170,PAYLOAD,2024-03-08 10:32:51,15.08837213,0.000128,53.2175,216.8303,101.3345,258.7791,5.5266e-05,5.92e-06,0.0,0 STARLINK-4170,1 53140U 22083J   24068.43948030  .00000592  00000-0  55266-4 0  9993,2 53140  53.2175 216.8303 0001280 101.3345 258.7791 15.08837213 90825,6917.889,95.438,540.639,538.868,0.0
53140.0,STARLINK-4170,PAYLOAD,2024-03-08 16:54:23,15.08839203,0.0001271,53.2176,215.6412,97.2311,262.8825,6.8503e-05,8.02e-06,0.0,0 STARLINK-4170,1 53140U 22083J   24068.70443946  .00000802  00000-0  68503-4 0  9991,2 53140  53.2176 215.6412 0001271  97.2311 262.8825 15.08839203 91499,6917.883,95.438,540.627,538.869,0.0
53140.0,STARLINK-4170,PAYLOAD,2024-03-09 02:26:41,15.0884871,0.0001549,53.2186,213.8554,120.2017,239.9129,8.1512e-05,1.01e-05,0.0,0 STARLINK-4170,1 53140U 22083J   24069.10187140  .00001010  00000-0  81512-4 0  9994,2 53140  53.2186 213.8554 0001549 120.2017 239.9129 15.08848710 91557,6917.854,95.437,540.79,538.647,0.0
53140.0,STARLINK-4170,PAYLOAD,2024-03-09 18:20:34,15.08833638,0.0001214,53.217,210.8832,85.2182,274.8949,0.00011378,1.523e-05,0.0,0 STARLINK-4170,1 53140U 22083J   24069.76428333  .00001523  00000-0  11378-3 0  9999,2 53140  53.2170 210.8832 0001214  85.2182 274.8949 15.08833638 91650,6917.9,95.438,540.605,538.925,0.0
53140.0,STARLINK-4170,PAYLOAD,2024-03-10 02:17:29,15.08842929,0.0001116,53.2174,209.396,85.3489,274.763,0.00014185,1.971e-05,0.0,0 STARLINK-4170,1 53140U 22083J   24070.09547711  .00001971  00000-0  14185-3 0  9995,2 53140  53.2174 209.3960 0001116  85.3489 274.7630 15.08842929 91706,6917.871,95.437,540.508,538.964,0.0
53140.0,STARLINK-4170,PAYLOAD,2024-03-10 08:39:02,15.08843082,0.0002035,53.2094,208.2059,87.6479,272.4746,0.0001109,1.477e-05,0.0,0 STARLINK-4170,1 53140U 22083J   24070.36044100  .00001477  00000-0  11090-3 0  9992,2 53140  53.2094 208.2059 0002035  87.6479 272.4746 15.08843082 91118,6917.871,95.437,541.144,538.328,0.0
53140.0,STARLINK-4170,PAYLOAD,2024-03-11 02:08:16,15.08844409,0.0001188,53.2157,204.9363,82.3556,277.7571,-7.4167e-05,-1.468e-05,0.0,0 STARLINK-4170,1 53140U 22083J   24071.08908286 -.00001468  00000-0 -74167-4 0  9993,2 53140  53.2157 204.9363 0001188  82.3556 277.7571 15.08844409 91854,6917.867,95.437,540.554,538.91,0.0
53140.0,STARLINK-4170,PAYLOAD,2024-03-11 14:51:22,15.08838054,0.0001535,53.2154,202.5573,84.806,275.3107,8.5308e-05,1.07e-05,0.0,0 STARLINK-4170,1 53140U 22083J   24071.61900537  .00001070  00000-0  85308-4 0  9999,2 53140  53.2154 202.5573 0001535  84.8060 275.3107 15.08838054 91309,6917.886,95.438,540.813,538.689,0.0
53140.0,STARLINK-4170,PAYLOAD,2024-03-11 18:02:08,15.08862304,0.0001638,53.2155,201.9628,80.7395,279.3782,-0.00027019,-4.588e-05,0.0,0 STARLINK-4170,1 53140U 22083J   24071.75148279 -.00004588  00000-0 -27019-3 0  9994,2 53140  53.2155 201.9628 0001638  80.7395 279.3782 15.08862304 91953,6917.812,95.436,540.81,538.544,0.0
53140.0,STARLINK-4170,PAYLOAD,2024-03-12 08:20:36,15.08820445,0.0001568,53.2144,199.284,92.6529,267.4643,0.00039984,6.078e-05,0.0,0 STARLINK-4170,1 53140U 22083J   24072.34765016  .00006078  00000-0  39984-3 0  9992,2 53140  53.2144 199.2840 0001568  92.6529 267.4643 15.08820445 92044,6917.94,95.439,540.89,538.72,0.0
53140.0,STARLINK-4170,PAYLOAD,2024-03-12 14:42:09,15.08839151,0.0001615,53.2134,198.0946,88.8972,271.2205,0.00014694,2.051e-05,0.0,0 STARLINK-4170,1 53140U 22083J   24072.61260471  .00002051  00000-0  14694-3 0  9995,2 53140  53.2134 198.0946 0001615  88.8972 271.2205 15.08839151 92084,6917.883,95.438,540.865,538.631,0.0
53140.0,STARLINK-4170,PAYLOAD,2024-03-13 01:49:51,15.08816595,0.0001626,53.2158,196.0113,110.4838,249.6329,0.00050233,7.711e-05,0.0,0 STARLINK-4170,1 53140U 22083J   24073.07628577  .00007711  00000-0  50233-3 0  9998,2 53140  53.2158 196.0113 0001626 110.4838 249.6329 15.08816595 92150,6917.952,95.439,540.942,538.692,0.0
53140.0,STARLINK-4170,PAYLOAD,2024-03-13 14:32:55,15.08844041,0.0001692,53.2159,193.6347,92.0817,268.0369,0.00011883,1.604e-05,0.0,0 STARLINK-4170,1 53140U 22083J   24073.60620219  .00001604  00000-0  11883-3 0  9995,2 53140  53.2159 193.6347 0001692  92.0817 268.0369 15.08844041 91603,6917.868,95.437,540.904,538.563,0.0
53140.0,STARLINK-4170,PAYLOAD,2024-03-13 17:43:41,15.08852373,0.0001498,53.2157,193.0401,96.857,263.2592,9.3384e-06,-1.39e-06,0.0,0 STARLINK-4170,1 53140U 22083J   24073.73867870 -.00000139  00000-0  93384-5 0  9996,2 53140  53.2157 193.0401 0001498  96.8570 263.2592 15.08852373 92252,6917.843,95.437,540.744,538.671,0.0
53140.0,STARLINK-4170,PAYLOAD,2024-03-14 11:12:56,15.08838136,0.0001556,53.2168,189.7669,106.7248,253.3915,2.5487e-05,1.18e-06,0.0,0 STARLINK-4170,1 53140U 22083J   24074.46732614  .00000118  00000-0  25487-4 0  9998,2 53140  53.2168 189.7669 0001556 106.7248 253.3915 15.08838136 92362,6917.886,95.438,540.828,538.675,0.0
53140.0,STARLINK-4170,PAYLOAD,2024-03-15 11:03:44,15.0883582,0.0001751,53.216,185.3048,116.545,243.5721,-1.0566e-05,-4.56e-06,0.0,0 STARLINK-4170,1 53140U 22083J   24075.46092874 -.00000456  00000-0 -10566-4 0  9995,2 53140  53.2160 185.3048 0001751 116.5450 243.5721 15.08835820 91887,6917.893,95.438,540.969,538.547,0.0
53140.0,STARLINK-4170,PAYLOAD,2024-03-16 12:29:54,15.08834423,0.0001383,53.2165,180.547,104.8595,255.255,9.464e-05,1.218e-05,0.0,0 STARLINK-4170,1 53140U 22083J   24076.52076999  .00001218  00000-0  94640-4 0  9993,2 53140  53.2165 180.5470 0001383 104.8595 255.2550 15.08834423 92675,6917.897,95.438,540.719,538.806,0.0
53140.0,STARLINK-4170,PAYLOAD,2024-03-16 15:40:40,15.08835923,0.0001313,53.217,179.9535,93.7896,266.3247,0.00010604,1.4e-05,0.0,0 STARLINK-4170,1 53140U 22083J   24076.65324989  .00001400  00000-0  10604-3 0  9992,2 53140  53.2170 179.9535 0001313  93.7896 266.3247 15.08835923 92063,6917.893,95.438,540.666,538.85,0.0
53140.0,STARLINK-4170,PAYLOAD,2024-03-17 13:56:04,15.0883755,0.0001364,53.2175,175.7946,89.2803,270.8345,0.00011653,1.567e-05,0.0,0 STARLINK-4170,1 53140U 22083J   24077.58061243  .00001567  00000-0  11653-3 0  9995,2 53140  53.2175 175.7946 0001364  89.2803 270.8345 15.08837550 92205,6917.888,95.438,540.696,538.809,0.0
53140.0,STARLINK-4170,PAYLOAD,2024-03-18 12:11:28,15.08841461,0.0001424,53.2179,171.6308,85.6878,274.4277,9.7764e-05,1.268e-05,0.0,0 STARLINK-4170,1 53140U 22083J   24078.50797125  .00001268  00000-0  97764-4 0  9999,2 53140  53.2179 171.6308 0001424  85.6878 274.4277 15.08841461 92340,6917.876,95.437,540.726,538.756,0.0
53140.0,STARLINK-4170,PAYLOAD,2024-03-19 12:02:15,15.08848684,0.0001431,53.2175,167.1704,91.4519,268.6637,0.00010368,1.363e-05,0.0,0 STARLINK-4170,1 53140U 22083J   24079.50156600  .00001363  00000-0  10368-3 0  9997,2 53140  53.2175 167.1704 0001431  91.4519 268.6637 15.08848684 92496,6917.854,95.437,540.709,538.729,0.0
53140.0,STARLINK-4170,PAYLOAD,2024-03-19 13:37:38,15.08851373,0.0001484,53.2176,166.8733,83.7815,276.3346,0.00012839,1.757e-05,0.0,0 STARLINK-4170,1 53140U 22083J   24079.56780404  .00001757  00000-0  12839-3 0  9990,2 53140  53.2176 166.8733 0001484  83.7815 276.3346 15.08851373 93130,6917.846,95.437,540.737,538.684,0.0
53140.0,STARLINK-4170,PAYLOAD,2024-03-20 10:17:39,15.08837891,0.0001413,53.2175,163.0057,99.1592,260.956,6.6887e-06,-1.81e-06,0.0,0 STARLINK-4170,1 53140U 22083J   24080.42893475 -.00000181  00000-0  66887-5 0  9995,2 53140  53.2175 163.0057 0001413  99.1592 260.9560 15.08837891 93262,6917.887,95.438,540.729,538.774,0.0
53140.0,STARLINK-4170,PAYLOAD,2024-03-20 11:53:03,15.08837744,0.0001377,53.2178,162.7073,118.9116,241.2015,-1.2383e-05,-4.85e-06,0.0,0 STARLINK-4170,1 53140U 22083J   24080.49517429 -.00000485  00000-0 -12383-4 0  9993,2 53140  53.2178 162.7073 0001377 118.9116 241.2015 15.08837744 92645,6917.887,95.438,540.705,538.8,0.0
53140.0,STARLINK-4170,PAYLOAD,2024-03-21 11:43:49,15.08847069,0.000141,53.2167,158.2485,97.852,262.2632,0.00011997,1.622e-05,0.0,0 STARLINK-4170,1 53140U 22083J   24081.48877110  .00001622  00000-0  11997-3 0  9990,2 53140  53.2167 158.2485 0001410  97.8520 262.2632 15.08847069 93428,6917.859,95.437,540.699,538.748,0.0
53140.0,STARLINK-4170,PAYLOAD,2024-03-22 09:59:13,15.08846329,0.000144,53.2167,154.0851,88.5669,271.5488,0.00023541,3.461e-05,0.0,0 STARLINK-4170,1 53140U 22083J   24082.41612969  .00003461  00000-0  23541-3 0  9994,2 53140  53.2167 154.0851 0001440  88.5669 271.5488 15.08846329 92938,6917.861,95.437,540.722,538.73,0.0
53140.0,STARLINK-4170,PAYLOAD,2024-03-22 14:45:22,15.08848957,0.0001534,53.2169,153.1933,72.2251,287.8908,0.00017502,2.499e-05,0.0,0 STARLINK-4170,1 53140U 22083J   24082.61484738  .00002499  00000-0  17502-3 0  9997,2 53140  53.2169 153.1933 0001534  72.2251 287.8908 15.08848957 93591,6917.853,95.437,540.779,538.657,0.0
53140.0,STARLINK-4170,PAYLOAD,2024-03-23 11:25:24,15.0883517,0.0001241,53.2167,149.3286,110.4582,249.6543,-7.6047e-05,-1.498e-05,0.0,0 STARLINK-4170,1 53140U 22083J   24083.47597984 -.00001498  00000-0 -76047-4 0  9990,2 53140  53.2167 149.3286 0001241 110.4582 249.6543 15.08835170 93723,6917.895,95.438,540.619,538.902,0.0
